{"type": "FeatureCollection", "features": [ {"type": "Feature", "properties": {"norad_id": 29940, "name": "FENGYUN 1C DEB", "group": "fengyun-1c-debris", "lat": -52.97546100480841, "lon": 15.76346622494505, "alt_km": 871.2537074677548, "timestamp": "2025-12-20T16:47:36.559152+00:00", "meta": {"OBJECT_NAME": "FENGYUN 1C DEB", "OBJECT_ID": "1999-025JN", "EPOCH": "2025-12-20T00:22:45.158016", "MEAN_MOTION": 14.18838382, "ECCENTRICITY": 0.0074672, "INCLINATION": 98.6209, "RA_OF_ASC_NODE": 3.4948, "ARG_OF_PERICENTER": 79.1109, "MEAN_ANOMALY": 336.3482, "EPHEMERIS_TYPE": 0, "CLASSIFICATION_TYPE": "U", "NORAD_CAT_ID": 29940, "ELEMENT_SET_NO": 999, "REV_AT_EPOCH": 97591, "BSTAR": 0.00044583298, "MEAN_MOTION_DOT": 9.12e-06, "MEAN_MOTION_DDOT": 0}, "tle": {"line1": "1 29940U 99025JN  25354.01580044  .00000912  00000+0  44583-3 0  9998", "line2": "2 29940  98.6209   3.4948 0074672  79.1109 336.3482 14.18838382975917"}}, "geometry": {"type": "Point", "coordinates": [15.76346622494505, -52.97546100480841]}}, {"type": "Feature", "properties": {"norad_id": 29942, "name": "FENGYUN 1C DEB", "group": "fengyun-1c-debris", "lat": 40.037867667356956, "lon": -112.18197542917041, "alt_km": 800.7267678964863, "timestamp": "2025-12-20T16:47:36.559162+00:00", "meta": {"OBJECT_NAME": "FENGYUN 1C DEB", "OBJECT_ID": "1999-025JQ", "EPOCH": "2025-12-20T04:23:16.965600", "MEAN_MOTION": 14.30436964, "ECCENTRICITY": 0.0049081, "INCLINATION": 98.6365, "RA_OF_ASC_NODE": 59.9681, "ARG_OF_PERICENTER": 253.8544, "MEAN_ANOMALY": 105.7233, "EPHEMERIS_TYPE": 0, "CLASSIFICATION_TYPE": "U", "NORAD_CAT_ID": 29942, "ELEMENT_SET_NO": 999, "REV_AT_EPOCH": 97975, "BSTAR": 0.00050223, "MEAN_MOTION_DOT": 1.279e-05, "MEAN_MOTION_DDOT": 0}, "tle": {"line1": "1 29942U 99025JQ  25354.18283525  .00001279  00000+0  50223-3 0  9997", "line2": "2 29942  98.6365  59.9681 0049081 253.8544 105.7233 14.30436964979754"}}, "geometry": {"type": "Point", "coordinates": [-112.18197542917041, 40.037867667356956]}}, {"type": "Feature", "properties": {"norad_id": 29943, "name": "FENGYUN 1C DEB", "group": "fengyun-1c-debris", "lat": -34.921339442379406, "lon": 176.0573184050766, "alt_km": 841.6793661761812, "timestamp": "2025-12-20T16:47:36.559172+00:00", "meta": {"OBJECT_NAME": "FENGYUN 1C DEB", "OBJECT_ID": "1999-025JR", "EPOCH": "2025-12-20T07:18:37.288800", "MEAN_MOTION": 14.09672671, "ECCENTRICITY": 0.0035197, "INCLINATION": 98.7265, "RA_OF_ASC_NODE": 1.8301, "ARG_OF_PERICENTER": 205.2068, "MEAN_ANOMALY": 165.9074, "EPHEMERIS_TYPE": 0, "CLASSIFICATION_TYPE": "U", "NORAD_CAT_ID": 29943, "ELEMENT_SET_NO": 999, "REV_AT_EPOCH": 97413, "BSTAR": 7.3955e-05, "MEAN_MOTION_DOT": 8.8e-07, "MEAN_MOTION_DDOT": 0}, "tle": {"line1": "1 29943U 99025JR  25354.30459825  .00000088  00000+0  73955-4 0  9995", "line2": "2 29943  98.7265   1.8301 0035197 205.2068 165.9074 14.09672671974136"}}, "geometry": {"type": "Point", "coordinates": [176.0573184050766, -34.921339442379406]}}, {"type": "Feature", "properties": {"norad_id": 29944, "name": "FENGYUN 1C DEB", "group": "fengyun-1c-debris", "lat": 80.688728687001, "lon": -174.86978373696155, "alt_km": 643.9366563397998, "timestamp": "2025-12-20T16:47:36.559183+00:00", "meta": {"OBJECT_NAME": "FENGYUN 1C DEB", "OBJECT_ID": "1999-025JS", "EPOCH": "2025-12-20T06:40:56.721792", "MEAN_MOTION": 14.87622762, "ECCENTRICITY": 0.0166515, "INCLINATION": 99.0048, "RA_OF_ASC_NODE": 289.3713, "ARG_OF_PERICENTER": 207.8826, "MEAN_ANOMALY": 151.3389, "EPHEMERIS_TYPE": 0, "CLASSIFICATION_TYPE": "U", "NORAD_CAT_ID": 29944, "ELEMENT_SET_NO": 999, "REV_AT_EPOCH": 566, "BSTAR": 0.00039674, "MEAN_MOTION_DOT": 4.578e-05, "MEAN_MOTION_DDOT": 0}, "tle": {"line1": "1 29944U 99025JS  25354.27843428  .00004578  00000+0  39674-3 0  9995", "line2": "2 29944  99.0048 289.3713 0166515 207.8826 151.3389 14.87622762  5662"}}, "geometry": {"type": "Point", "coordinates": [-174.86978373696155, 80.688728687001]}}, {"type": "Feature", "properties": {"norad_id": 29945, "name": "FENGYUN 1C DEB", "group": "fengyun-1c-debris", "lat": -54.28702141381061, "lon": 30.5323320262968, "alt_km": 863.3641632311055, "timestamp": "2025-12-20T16:47:36.559193+00:00", "meta": {"OBJECT_NAME": "FENGYUN 1C DEB", "OBJECT_ID": "1999-025JT", "EPOCH": "2025-12-20T00:14:09.407040", "MEAN_MOTION": 14.05575746, "ECCENTRICITY": 0.0030542, "INCLINATION": 98.7911, "RA_OF_ASC_NODE": 17.4331, "ARG_OF_PERICENTER": 341.8294, "MEAN_ANOMALY": 74.1999, "EPHEMERIS_TYPE": 0, "CLASSIFICATION_TYPE": "U", "NORAD_CAT_ID": 29945, "ELEMENT_SET_NO": 999, "REV_AT_EPOCH": 97080, "BSTAR": 0.00023355, "MEAN_MOTION_DOT": 3.39e-06, "MEAN_MOTION_DDOT": 0}, "tle": {"line1": "1 29945U 99025JT  25354.00983110  .00000339  00000+0  23355-3 0  9990", "line2": "2 29945  98.7911  17.4331 0030542 341.8294  74.1999 14.05575746970807"}}, "geometry": {"type": "Point", "coordinates": [30.5323320262968, -54.28702141381061]}}, {"type": "Feature", "properties": {"norad_id": 29946, "name": "FENGYUN 1C DEB", "group": "fengyun-1c-debris", "lat": 43.59287369132099, "lon": -21.735497011169485, "alt_km": 854.403845540297, "timestamp": "2025-12-20T16:47:36.559204+00:00", "meta": {"OBJECT_NAME": "FENGYUN 1C DEB", "OBJECT_ID": "1999-025JU", "EPOCH": "2025-12-20T10:21:24.122016", "MEAN_MOTION": 14.08261442, "ECCENTRICITY": 0.0080327, "INCLINATION": 98.7803, "RA_OF_ASC_NODE": 346.4649, "ARG_OF_PERICENTER": 321.745, "MEAN_ANOMALY": 162.7175, "EPHEMERIS_TYPE": 0, "CLASSIFICATION_TYPE": "U", "NORAD_CAT_ID": 29946, "ELEMENT_SET_NO": 999, "REV_AT_EPOCH": 97155, "BSTAR": 0.00024388, "MEAN_MOTION_DOT": 3.86e-06, "MEAN_MOTION_DDOT": 0}, "tle": {"line1": "1 29946U 99025JU  25354.43152919  .00000386  00000+0  24388-3 0  9992", "line2": "2 29946  98.7803 346.4649 0080327 321.7450 162.7175 14.08261442971553"}}, "geometry": {"type": "Point", "coordinates": [-21.735497011169485, 43.59287369132099]}}, {"type": "Feature", "properties": {"norad_id": 29947, "name": "FENGYUN 1C DEB", "group": "fengyun-1c-debris", "lat": -54.40386009763483, "lon": -167.53106931696894, "alt_km": 911.5884158976951, "timestamp": "2025-12-20T16:47:36.559214+00:00", "meta": {"OBJECT_NAME": "FENGYUN 1C DEB", "OBJECT_ID": "1999-025JV", "EPOCH": "2025-12-19T02:20:06.910080", "MEAN_MOTION": 14.03076836, "ECCENTRICITY": 0.00409382, "INCLINATION": 98.837, "RA_OF_ASC_NODE": 23.4652, "ARG_OF_PERICENTER": 103.4009, "MEAN_ANOMALY": 322.0685, "EPHEMERIS_TYPE": 0, "CLASSIFICATION_TYPE": "U", "NORAD_CAT_ID": 29947, "ELEMENT_SET_NO": 999, "REV_AT_EPOCH": 96839, "BSTAR": 0.00037045078, "MEAN_MOTION_DOT": 5.38e-06, "MEAN_MOTION_DDOT": 0}, "tle": {"line1": "1 29947U 99025JV  25353.09730220  .00000538  00000+0  37045-3 0  9994", "line2": "2 29947  98.8370  23.4652 0040938 103.4009 322.0685 14.03076836968390"}}, "geometry": {"type": "Point", "coordinates": [-167.53106931696894, -54.40386009763483]}}, {"type": "Feature", "properties": {"norad_id": 29948, "name": "FENGYUN 1C DEB", "group": "fengyun-1c-debris", "lat": -10.326937300261562, "lon": 159.05318285364015, "alt_km": 819.504118483931, "timestamp": "2025-12-20T16:47:36.559224+00:00", "meta": {"OBJECT_NAME": "FENGYUN 1C DEB", "OBJECT_ID": "1999-025JW", "EPOCH": "2025-12-20T11:23:38.995296", "MEAN_MOTION": 14.06196913, "ECCENTRICITY": 0.0084001, "INCLINATION": 98.8247, "RA_OF_ASC_NODE": 340.456, "ARG_OF_PERICENTER": 211.669, "MEAN_ANOMALY": 280.7585, "EPHEMERIS_TYPE": 0, "CLASSIFICATION_TYPE": "U", "NORAD_CAT_ID": 29948, "ELEMENT_SET_NO": 999, "REV_AT_EPOCH": 97085, "BSTAR": 8.5098e-05, "MEAN_MOTION_DOT": 1.01e-06, "MEAN_MOTION_DDOT": 0}, "tle": {"line1": "1 29948U 99025JW  25354.47475689  .00000101  00000+0  85098-4 0  9991", "line2": "2 29948  98.8247 340.4560 0084001 211.6690 280.7585 14.06196913970856"}}, "geometry": {"type": "Point", "coordinates": [159.05318285364015, -10.326937300261562]}}, {"type": "Feature", "properties": {"norad_id": 29949, "name": "FENGYUN 1C DEB", "group": "fengyun-1c-debris", "lat": 18.02335492832234, "lon": -166.98849862112945, "alt_km": 879.0138828026238, "timestamp": "2025-12-20T16:47:36.559291+00:00", "meta": {"OBJECT_NAME": "FENGYUN 1C DEB", "OBJECT_ID": "1999-025JX", "EPOCH": "2025-12-20T07:32:50.640864", "MEAN_MOTION": 14.06828549, "ECCENTRICITY": 0.0023049, "INCLINATION": 98.7617, "RA_OF_ASC_NODE": 9.7621, "ARG_OF_PERICENTER": 283.3396, "MEAN_ANOMALY": 88.4716, "EPHEMERIS_TYPE": 0, "CLASSIFICATION_TYPE": "U", "NORAD_CAT_ID": 29949, "ELEMENT_SET_NO": 999, "REV_AT_EPOCH": 97214, "BSTAR": 1.2826e-06, "MEAN_MOTION_DOT": -4.1e-07, "MEAN_MOTION_DDOT": 0}, "tle": {"line1": "1 29949U 99025JX  25354.31447501 -.00000041  00000+0  12826-5 0  9991", "line2": "2 29949  98.7617   9.7621 0023049 283.3396  88.4716 14.06828549972144"}}, "geometry": {"type": "Point", "coordinates": [-166.98849862112945, 18.02335492832234]}}, {"type": "Feature", "properties": {"norad_id": 29950, "name": "FENGYUN 1C DEB", "group": "fengyun-1c-debris", "lat": 78.46874254343167, "lon": -105.50526614711552, "alt_km": 863.160353447729, "timestamp": "2025-12-20T16:47:36.559304+00:00", "meta": {"OBJECT_NAME": "FENGYUN 1C DEB", "OBJECT_ID": "1999-025JY", "EPOCH": "2025-12-20T01:15:45.082368", "MEAN_MOTION": 14.1033728, "ECCENTRICITY": 0.00325781, "INCLINATION": 98.7402, "RA_OF_ASC_NODE": 24.9255, "ARG_OF_PERICENTER": 220.9375, "MEAN_ANOMALY": 193.1598, "EPHEMERIS_TYPE": 0, "CLASSIFICATION_TYPE": "U", "NORAD_CAT_ID": 29950, "ELEMENT_SET_NO": 999, "REV_AT_EPOCH": 97394, "BSTAR": 8.8926209e-05, "MEAN_MOTION_DOT": 1.16e-06, "MEAN_MOTION_DDOT": 0}, "tle": {"line1": "1 29950U 99025JY  25354.05260512  .00000116  00000+0  88926-4 0  9994", "line2": "2 29950  98.7402  24.9255 0032578 220.9375 193.1598 14.10337280973944"}}, "geometry": {"type": "Point", "coordinates": [-105.50526614711552, 78.46874254343167]}}]}